OBJECT_NAME,OBJECT_ID,EPOCH,MEAN_MOTION,ECCENTRICITY,INCLINATION,RA_OF_ASC_NODE,ARG_OF_PERICENTER,MEAN_ANOMALY,EPHEMERIS_TYPE,CLASSIFICATION_TYPE,NORAD_CAT_ID,ELEMENT_SET_NO,REV_AT_EPOCH,BSTAR,MEAN_MOTION_DOT,MEAN_MOTION_DDOT
SKY MUSTER 2 (NBN1B),2016-060B,2026-06-18T18:44:37.007232,1.00269897,.00014721,0.0020,21.1968,66.7815,244.9836,0,U,41794,999,3553,0,-.251E-5,0
HIMAWARI-9,2016-064A,2026-06-19T06:42:03.553920,1.00270188,.00010072,0.0172,307.7649,181.4804,19.5297,0,U,41836,999,3523,0,-.281E-5,0
SHIJIAN-17 (SJ-17),2016-065A,2026-06-18T09:45:08.219232,0.99854984,.0001842,5.7567,72.5909,27.8755,186.4195,0,U,41838,999,3521,0,.73E-6,0
GOES 16,2016-071A,2026-06-19T05:32:04.314336,1.00271255,.00002692,0.3475,85.5128,331.5163,188.7509,0,U,41866,999,3512,0,-.97E-6,0
TIANLIAN 1-04,2016-072A,2026-06-19T05:09:37.242432,1.00271680,.00425014,0.8730,82.9027,90.0654,348.6503,0,U,41869,999,3532,0,.24E-6,0
WGS F8 (USA 272),2016-075A,2026-06-18T15:03:38.613600,1.00268202,.00001556,0.0418,50.4560,340.9011,251.2399,0,U,41879,999,3483,0,0,0
FENGYUN 4A,2016-077A,2026-06-19T06:37:11.521056,1.00267408,.00086989,2.3287,80.2557,153.5599,256.7151,0,U,41882,999,3495,0,-.364E-5,0
ECHOSTAR 19,2016-079A,2026-06-18T21:00:57.850848,1.00270951,.0001221,0.0171,21.7381,67.5581,35.9508,0,U,41893,999,3472,0,-.145E-5,0
JCSAT-110A (JCSAT-15),2016-082A,2026-06-19T01:32:38.626080,1.00270083,.00004805,0.0182,7.8267,90.1908,302.4961,0,U,41903,999,3477,0,-.357E-5,0
STAR ONE D1,2016-082B,2026-06-19T02:12:37.911744,1.00270481,.00021922,0.0174,11.7940,95.6879,108.9935,0,U,41904,999,3479,0,-.217E-5,0
TJS-2,2017-001A,2026-06-19T04:57:21.684672,1.00270120,.00003684,0.8395,85.2960,58.8941,264.1312,0,U,41911,999,3473,0,-.13E-6,0
SBIRS GEO-4 (USA 273),2017-004A,2026-06-19T06:07:50.109312,1.00271742,.00020307,2.2479,43.3505,35.9027,301.0816,0,U,41937,999,3461,0,.116E-5,0
HISPASAT 36W-1,2017-006A,2026-06-19T04:08:58.135776,1.00280304,.00015174,0.0158,176.4567,251.7801,225.4062,0,U,41942,999,3426,0,-.25E-5,0
TELKOM 3S,2017-007A,2026-06-19T04:32:38.798880,1.00267211,.0002259,0.0158,355.6089,90.4220,7.5579,0,U,41944,999,3416,0,0,0
INTELSAT 32E (IS-32E),2017-007B,2026-06-19T04:06:58.326624,1.00270576,.00006553,0.0180,10.1464,310.2644,325.5432,0,U,41945,999,3424,0,-.275E-5,0
ECHOSTAR 23,2017-014A,2026-06-19T05:30:34.458336,1.00272469,.00022625,0.0178,8.0928,79.4050,152.7023,0,U,42070,999,3394,0,-.64E-6,0
WGS F9 (USA 275),2017-016A,2026-06-19T04:15:49.977792,1.00269311,.00003013,0.0198,352.6556,312.3369,14.3675,0,U,42075,999,3391,0,0,0
SES-10,2017-017A,2026-06-19T05:34:23.395008,1.00271650,.0002656,0.0225,41.2107,55.0874,187.8610,0,U,42432,999,3377,0,-.279E-5,0
CHINASAT 16 (SJ-13),2017-018A,2026-06-19T01:25:30.429408,1.00265993,.00041371,0.1014,90.1338,141.2871,167.7292,0,U,42662,999,3376,0,-.358E-5,0
KOREASAT 7,2017-023A,2026-06-19T06:34:34.273056,1.00274465,.00007596,0.0205,335.3351,73.6639,73.0339,0,U,42691,999,3339,0,-.368E-5,0
SGDC,2017-023B,2026-06-18T11:12:43.268544,1.00268567,.00025974,0.0272,358.9498,95.9502,265.1297,0,U,42692,999,3342,0,0,0
GSAT-9,2017-024A,2026-06-19T02:12:38.837952,1.00268465,.00025444,0.0114,55.3025,28.8908,313.6061,0,U,42695,999,3331,0,-.292E-5,0
INMARSAT 5-F4,2017-025A,2026-06-18T11:28:45.069024,1.00273392,.0000618,0.0173,18.0434,337.7045,139.6424,0,U,42698,999,3329,0,.69E-6,0
SES-15,2017-026A,2026-06-19T00:17:11.299776,1.00268635,.00004177,0.0188,342.0645,67.4036,92.8830,0,U,42709,999,745,0,.54E-6,0
QZS-2 (MICHIBIKI-2),2017-028A,2026-06-18T12:27:38.858400,1.00283521,.0759246,39.4254,243.1353,269.2826,83.0137,0,U,42738,999,764,0,-.177E-5,0
VIASAT-2,2017-029A,2026-06-19T05:33:03.386016,1.00268904,.00000472,0.0169,299.4188,39.9219,301.4862,0,U,42740,999,3322,0,-.271E-5,0
EUTELSAT 172B,2017-029B,2026-06-19T05:08:22.362144,1.00270537,.0000049,0.0295,130.8664,131.2824,254.4026,0,U,42741,999,3376,0,-.12E-6,0
GSAT-19,2017-031A,2026-06-19T02:50:13.508160,1.00271798,.00070741,0.0336,264.9192,165.3482,287.5183,0,U,42747,999,3316,0,.119E-5,0
ECHOSTAR 21,2017-032A,2026-06-19T06:04:50.395584,1.00270807,.0002155,1.7710,355.8846,93.8668,279.1997,0,U,42749,999,3312,0,.59E-6,0
BULGARIASAT-1,2017-038A,2026-06-19T06:02:28.123296,1.00274952,.00032814,0.0096,44.8355,51.4513,263.7006,0,U,42801,999,3286,0,.5E-7,0
HELLAS-SAT 3,2017-040A,2026-06-19T06:13:04.606176,1.00272469,.00047347,0.0535,49.9156,4.9812,344.8388,0,U,42814,999,3282,0,.146E-5,0
GSAT-17,2017-040B,2026-06-19T03:03:19.750752,1.00269993,.00019712,0.0165,30.2789,276.1197,100.2675,0,U,42815,999,3280,0,-.264E-5,0
