
BULGARIASAT-1
1 42801U 17038A   26170.25171439  .00000005  00000+0  00000+0 0  9995
2 42801   0.0096  44.8355 0003281  51.4513 263.7006  1.00274952 32867

CHINASAT 16 (SJ-13)
1 42662U 17018A   26170.05937997 -.00000358  00000+0  00000+0 0  9997
2 42662   0.1014  90.1338 0004137 141.2871 167.7292  1.00265993 33769

ECHOSTAR 19
1 41893U 16079A   26169.87566957 -.00000145  00000+0  00000+0 0  9994
2 41893   0.0171  21.7381 0001221  67.5581  35.9508  1.00270951 34727

ECHOSTAR 21
1 42749U 17032A   26170.25336106  .00000059  00000+0  00000+0 0  9993
2 42749   1.7710 355.8846 0002155  93.8668 279.1997  1.00270807 33124

ECHOSTAR 23
1 42070U 17014A   26170.22956549 -.00000064  00000+0  00000+0 0  9993
2 42070   0.0178   8.0928 0002262  79.4050 152.7023  1.00272469 33945

EUTELSAT 172B
1 42741U 17029B   26170.21414771 -.00000012  00000+0  00000+0 0  9992
2 42741   0.0295 130.8664 0000049 131.2824 254.4026  1.00270537 33765

FENGYUN 4A
1 41882U 16077A   26170.27582779 -.00000364  00000+0  00000+0 0  9999
2 41882   2.3287  80.2557 0008698 153.5599 256.7151  1.00267408 34958

GOES 16
1 41866U 16071A   26170.23060549 -.00000097  00000+0  00000+0 0  9990
2 41866   0.3475  85.5128 0000269 331.5163 188.7509  1.00271255 35126

GSAT-17
1 42815U 17040B   26170.12731193 -.00000264  00000+0  00000+0 0  9996
2 42815   0.0165  30.2789 0001971 276.1197 100.2675  1.00269993 32807

GSAT-19
1 42747U 17031A   26170.11821190  .00000119  00000+0  00000+0 0  9994
2 42747   0.0336 264.9192 0007074 165.3482 287.5183  1.00271798 33160

GSAT-9
1 42695U 17024A   26170.09211618 -.00000292  00000+0  00000+0 0  9996
2 42695   0.0114  55.3025 0002544  28.8908 313.6061  1.00268465 33316

HELLAS-SAT 3
1 42814U 17040A   26170.25908109  .00000146  00000+0  00000+0 0  9990
2 42814   0.0535  49.9156 0004734   4.9812 344.8388  1.00272469 32824

HIMAWARI-9
1 41836U 16064A   26170.27920780 -.00000281  00000+0  00000+0 0  9990
2 41836   0.0172 307.7649 0001007 181.4804  19.5297  1.00270188 35237

HISPASAT 36W-1
1 41942U 17006A   26170.17289509 -.00000250  00000+0  00000+0 0  9997
2 41942   0.0158 176.4567 0001517 251.7801 225.4062  1.00280304 34264

INMARSAT 5-F4
1 42698U 17025A   26169.47829941  .00000069  00000+0  00000+0 0  9995
2 42698   0.0173  18.0434 0000618 337.7045 139.6424  1.00273392 33299

INTELSAT 32E (IS-32E)
1 41945U 17007B   26170.17150841 -.00000275  00000+0  00000+0 0  9994
2 41945   0.0180  10.1464 0000655 310.2644 325.5432  1.00270576 34241

JCSAT-110A (JCSAT-15)
1 41903U 16082A   26170.06433595 -.00000357  00000+0  00000+0 0  9999
2 41903   0.0182   7.8267 0000480  90.1908 302.4961  1.00270083 34776

KOREASAT 7
1 42691U 17023A   26170.27400779 -.00000368  00000+0  00000+0 0  9993
2 42691   0.0205 335.3351 0000759  73.6639  73.0339  1.00274465 33391

QZS-2 (MICHIBIKI-2)
1 42738U 17028A   26169.51919975 -.00000177  00000+0  00000+0 0  9996
2 42738  39.4254 243.1353 0759246 269.2826  83.0137  1.00283521  7643

SBIRS GEO-4 (USA 273)
1 41937U 17004A   26170.25544108  .00000116  00000+0  00000+0 0  9997
2 41937   2.2479  43.3505 0002030  35.9027 301.0816  1.00271742 34618

SES-10
1 42432U 17017A   26170.23221522 -.00000279  00000+0  00000+0 0  9993
2 42432   0.0225  41.2107 0002656  55.0874 187.8610  1.00271650 33772

SES-15
1 42709U 17026A   26170.01193634  .00000054  00000+0  00000+0 0  9998
2 42709   0.0188 342.0645 0000417  67.4036  92.8830  1.00268635  7450

SGDC
1 42692U 17023B   26169.46716746  .00000000  00000+0  00000+0 0  9999
2 42692   0.0272 358.9498 0002597  95.9502 265.1297  1.00268567 33424

SHIJIAN-17 (SJ-17)
1 41838U 16065A   26169.40634513  .00000073  00000+0  00000+0 0  9990
2 41838   5.7567  72.5909 0001842  27.8755 186.4195  0.99854984 35218

SKY MUSTER 2 (NBN1B)
1 41794U 16060B   26169.78098388 -.00000251  00000+0  00000+0 0  9990
2 41794   0.0020  21.1968 0001472  66.7815 244.9836  1.00269897 35537

STAR ONE D1
1 41904U 16082B   26170.09210546 -.00000217  00000+0  00000+0 0  9997
2 41904   0.0174  11.7940 0002192  95.6879 108.9935  1.00270481 34793

TELKOM 3S
1 41944U 17007A   26170.18933795  .00000000  00000+0  00000+0 0  9996
2 41944   0.0158 355.6089 0002259  90.4220   7.5579  1.00267211 34166

TIANLIAN 1-04
1 41869U 16072A   26170.21501438  .00000024  00000+0  00000+0 0  9998
2 41869   0.8730  82.9027 0042501  90.0654 348.6503  1.00271680 35329

TJS-2
1 41911U 17001A   26170.20650098 -.00000013  00000+0  00000+0 0  9994
2 41911   0.8395  85.2960 0000368  58.8941 264.1312  1.00270120 34734

VIASAT-2
1 42740U 17029A   26170.23128919 -.00000271  00000+0  00000+0 0  9996
2 42740   0.0169 299.4188 0000047  39.9219 301.4862  1.00268904 33224

WGS F8 (USA 272)
1 41879U 16075A   26169.62753025  .00000000  00000+0  00000+0 0  9990
2 41879   0.0418  50.4560 0000155 340.9011 251.2399  1.00268202 34833

WGS F9 (USA 275)
1 42075U 17016A   26170.17766178  .00000000  00000+0  00000+0 0  9990
2 42075   0.0198 352.6556 0000301 312.3369  14.3675  1.00269311 33916
